start=new Date('2021-11-25T00:00:00.000Z').valueOf();
sats=[{"LAUNCH_DATE":"2020-01-29","MEAN_MOTION_DOT":"0.00046324","BSTAR":"0.00106350000000","REF_FRAME":"TEME","FILE":"3223205","MEAN_ANOMALY":"293.8588","GP_ID":"190423400","APOAPSIS":"440.312","EPHEMERIS_TYPE":"0","OBJECT_TYPE":"PAYLOAD","CLASSIFICATION_TYPE":"U","INCLINATION":"53.0553","CENTER_NAME":"EARTH","NORAD_CAT_ID":"45077","RA_OF_ASC_NODE":"68.4927","SEMIMAJOR_AXIS":"6817.546","TLE_LINE2":"2 45077  53.0553  68.4927 0001321  66.2556 293.8588 15.42270870101123","PERIOD":"93.369","OBJECT_ID":"2020-006AK","MEAN_MOTION_DDOT":"0.0000000000000","MEAN_ELEMENT_THEORY":"SGP4","COUNTRY_CODE":"US","EPOCH":"2021-11-24T21:41:26.899584","OBJECT_NAME":"STARLINK-1182","PERIAPSIS":"438.510","ELEMENT_SET_NO":"999","MEAN_MOTION":"15.42270870","SITE":"AFETR","ARG_OF_PERICENTER":"66.2556","TLE_LINE1":"1 45077U 20006AK  21328.90378356  .00046324  00000-0  10635-2 0  9994","DECAY_DATE":null,"TIME_SYSTEM":"UTC","REV_AT_EPOCH":"10112","ECCENTRICITY":"0.00013210","RCS_SIZE":"LARGE"},{"TLE_LINE1":"1 45078U 20006AL  21328.47930809  .00001169  00000-0  97385-4 0  9991","DECAY_DATE":null,"TIME_SYSTEM":"UTC","REV_AT_EPOCH":"10066","ECCENTRICITY":"0.00015360","RCS_SIZE":"LARGE","TLE_LINE2":"2 45078  53.0562  97.6104 0001536  87.2203 272.8962 15.06397544100664","PERIOD":"95.592","RA_OF_ASC_NODE":"97.6104","SEMIMAJOR_AXIS":"6925.356","OBJECT_ID":"2020-006AL","MEAN_MOTION_DDOT":"0.0000000000000","MEAN_ELEMENT_THEORY":"SGP4","PERIAPSIS":"546.157","OBJECT_NAME":"STARLINK-1177","EPOCH":"2021-11-24T11:30:12.218976","COUNTRY_CODE":"US","ELEMENT_SET_NO":"999","SITE":"AFETR","MEAN_MOTION":"15.06397544","ARG_OF_PERICENTER":"87.2203","APOAPSIS":"548.285","EPHEMERIS_TYPE":"0","GP_ID":"190396680","OBJECT_TYPE":"PAYLOAD","INCLINATION":"53.0562","CLASSIFICATION_TYPE":"U","NORAD_CAT_ID":"45078","CENTER_NAME":"EARTH","LAUNCH_DATE":"2020-01-29","MEAN_MOTION_DOT":"0.00001169","BSTAR":"0.00009738500000","FILE":"3223022","REF_FRAME":"TEME","MEAN_ANOMALY":"272.8962"},{"ECCENTRICITY":"0.00012360","RCS_SIZE":"LARGE","TLE_LINE1":"1 45079U 20006AM  21328.72258916 -.00001043  00000-0 -51115-4 0  9996","DECAY_DATE":null,"TIME_SYSTEM":"UTC","REV_AT_EPOCH":"10070","EPOCH":"2021-11-24T17:20:31.703424","COUNTRY_CODE":"US","OBJECT_NAME":"STARLINK-1149","PERIAPSIS":"546.370","ELEMENT_SET_NO":"999","SITE":"AFETR","MEAN_MOTION":"15.06395834","ARG_OF_PERICENTER":"77.9593","SEMIMAJOR_AXIS":"6925.361","RA_OF_ASC_NODE":"96.5229","PERIOD":"95.592","TLE_LINE2":"2 45079  53.0532  96.5229 0001236  77.9593 282.1535 15.06395834100708","OBJECT_ID":"2020-006AM","MEAN_MOTION_DDOT":"0.0000000000000","MEAN_ELEMENT_THEORY":"SGP4","INCLINATION":"53.0532","CLASSIFICATION_TYPE":"U","CENTER_NAME":"EARTH","NORAD_CAT_ID":"45079","GP_ID":"190422898","EPHEMERIS_TYPE":"0","APOAPSIS":"548.082","OBJECT_TYPE":"PAYLOAD","LAUNCH_DATE":"2020-01-29","MEAN_MOTION_DOT":"-0.00001043","BSTAR":"-0.00005111500000","FILE":"3223205","REF_FRAME":"TEME","MEAN_ANOMALY":"282.1535"},{"BSTAR":"0.00000142550000","FILE":"3223205","MEAN_ANOMALY":"281.2107","REF_FRAME":"TEME","LAUNCH_DATE":"2020-01-29","MEAN_MOTION_DOT":"-0.00000260","CENTER_NAME":"EARTH","NORAD_CAT_ID":"45080","CLASSIFICATION_TYPE":"U","INCLINATION":"53.0541","GP_ID":"190422646","EPHEMERIS_TYPE":"0","APOAPSIS":"548.161","OBJECT_TYPE":"PAYLOAD","SITE":"AFETR","MEAN_MOTION":"15.06395843","ARG_OF_PERICENTER":"78.9034","EPOCH":"2021-11-24T17:31:08.197536","COUNTRY_CODE":"US","PERIAPSIS":"546.291","OBJECT_NAME":"STARLINK-1153","ELEMENT_SET_NO":"999","MEAN_MOTION_DDOT":"0.0000000000000","MEAN_ELEMENT_THEORY":"SGP4","SEMIMAJOR_AXIS":"6925.361","RA_OF_ASC_NODE":"96.4846","TLE_LINE2":"2 45080  53.0541  96.4846 0001350  78.9034 281.2107 15.06395843100718","PERIOD":"95.592","OBJECT_ID":"2020-006AN","RCS_SIZE":"LARGE","ECCENTRICITY":"0.00013500","TIME_SYSTEM":"UTC","REV_AT_EPOCH":"10071","TLE_LINE1":"1 45080U 20006AN  21328.72995599 -.00000260  00000-0  14255-5 0  9997","DECAY_DATE":null},{"LAUNCH_DATE":"2020-01-29","MEAN_MOTION_DOT":"0.00001094","BSTAR":"0.00009231400000","FILE":"3223205","MEAN_ANOMALY":"280.8204","REF_FRAME":"TEME","INCLINATION":"53.0555","CLASSIFICATION_TYPE":"U","CENTER_NAME":"EARTH","NORAD_CAT_ID":"45081","GP_ID":"190423900","APOAPSIS":"548.253","EPHEMERIS_TYPE":"0","OBJECT_TYPE":"PAYLOAD","COUNTRY_CODE":"US","EPOCH":"2021-11-24T18:34:49.294560","OBJECT_NAME":"STARLINK-1151","PERIAPSIS":"546.189","ELEMENT_SET_NO":"999","SITE":"AFETR","MEAN_MOTION":"15.06397679","ARG_OF_PERICENTER":"79.2953","SEMIMAJOR_AXIS":"6925.356","RA_OF_ASC_NODE":"96.2963","TLE_LINE2":"2 45081  53.0555  96.2963 0001490  79.2953 280.8204 15.06397679100724","PERIOD":"95.592","OBJECT_ID":"2020-006AP","MEAN_MOTION_DDOT":"0.0000000000000","MEAN_ELEMENT_THEORY":"SGP4","ECCENTRICITY":"0.00014900","RCS_SIZE":"LARGE","TLE_LINE1":"1 45081U 20006AP  21328.77418165  .00001094  00000-0  92314-4 0  9998","DECAY_DATE":null,"TIME_SYSTEM":"UTC","REV_AT_EPOCH":"10072"},{"RCS_SIZE":"LARGE","ECCENTRICITY":"0.00013860","REV_AT_EPOCH":"10065","TIME_SYSTEM":"UTC","DECAY_DATE":null,"TLE_LINE1":"1 45082U 20006AQ  21328.36504215  .00000596  00000-0  58930-4 0  9998","ARG_OF_PERICENTER":"81.6620","MEAN_MOTION":"15.06402653","SITE":"AFETR","ELEMENT_SET_NO":"999","COUNTRY_CODE":"US","EPOCH":"2021-11-24T08:45:39.641760","OBJECT_NAME":"STARLINK-1160","PERIAPSIS":"546.246","MEAN_ELEMENT_THEORY":"SGP4","MEAN_MOTION_DDOT":"0.0000000000000","OBJECT_ID":"2020-006AQ","SEMIMAJOR_AXIS":"6925.340","RA_OF_ASC_NODE":"98.1225","PERIOD":"95.592","TLE_LINE2":"2 45082  53.0529  98.1225 0001386  81.6620 278.4526 15.06402653100651","CENTER_NAME":"EARTH","NORAD_CAT_ID":"45082","CLASSIFICATION_TYPE":"U","INCLINATION":"53.0529","OBJECT_TYPE":"PAYLOAD","GP_ID":"190396180","EPHEMERIS_TYPE":"0","APOAPSIS":"548.165","REF_FRAME":"TEME","FILE":"3223022","MEAN_ANOMALY":"278.4526","BSTAR":"0.00005893000000","MEAN_MOTION_DOT":"0.00000596","LAUNCH_DATE":"2020-01-29"},{"OBJECT_ID":"2020-006AR","TLE_LINE2":"2 45083  53.0546 116.2018 0001785  86.9073 273.2121 15.06405691100442","PERIOD":"95.592","RA_OF_ASC_NODE":"116.2018","SEMIMAJOR_AXIS":"6925.331","MEAN_ELEMENT_THEORY":"SGP4","MEAN_MOTION_DDOT":"0.0000000000000","ELEMENT_SET_NO":"999","PERIAPSIS":"545.960","OBJECT_NAME":"STARLINK-1190","COUNTRY_CODE":"US","EPOCH":"2021-11-24T19:04:01.999776","ARG_OF_PERICENTER":"86.9073","SITE":"AFETR","MEAN_MOTION":"15.06405691","DECAY_DATE":null,"TLE_LINE1":"1 45083U 20006AR  21328.79446759  .00000787  00000-0  71710-4 0  9997","REV_AT_EPOCH":"10044","TIME_SYSTEM":"UTC","ECCENTRICITY":"0.00017850","RCS_SIZE":"LARGE","MEAN_MOTION_DOT":"0.00000787","LAUNCH_DATE":"2020-01-29","FILE":"3223205","MEAN_ANOMALY":"273.2121","REF_FRAME":"TEME","BSTAR":"0.00007171000000","OBJECT_TYPE":"PAYLOAD","EPHEMERIS_TYPE":"0","APOAPSIS":"548.432","GP_ID":"190422399","CLASSIFICATION_TYPE":"U","INCLINATION":"53.0546","NORAD_CAT_ID":"45083","CENTER_NAME":"EARTH"},{"CENTER_NAME":"EARTH","NORAD_CAT_ID":"45084","CLASSIFICATION_TYPE":"U","INCLINATION":"53.0545","GP_ID":"190423146","APOAPSIS":"548.150","EPHEMERIS_TYPE":"0","OBJECT_TYPE":"PAYLOAD","BSTAR":"0.00010348000000","MEAN_ANOMALY":"283.3154","FILE":"3223205","REF_FRAME":"TEME","LAUNCH_DATE":"2020-01-29","MEAN_MOTION_DOT":"0.00001260","RCS_SIZE":"LARGE","ECCENTRICITY":"0.00013400","TIME_SYSTEM":"UTC","REV_AT_EPOCH":"10100","TLE_LINE1":"1 45084U 20006AS  21328.77602757  .00001260  00000-0  10348-3 0  9994","DECAY_DATE":null,"MEAN_MOTION":"15.06397198","SITE":"AFETR","ARG_OF_PERICENTER":"76.7985","COUNTRY_CODE":"US","EPOCH":"2021-11-24T18:37:28.782048","PERIAPSIS":"546.294","OBJECT_NAME":"STARLINK-1173","ELEMENT_SET_NO":"999","MEAN_MOTION_DDOT":"0.0000000000000","MEAN_ELEMENT_THEORY":"SGP4","RA_OF_ASC_NODE":"76.2788","SEMIMAJOR_AXIS":"6925.357","PERIOD":"95.592","TLE_LINE2":"2 45084  53.0545  76.2788 0001340  76.7985 283.3154 15.06397198101000","OBJECT_ID":"2020-006AS"},{"GP_ID":"190395937","EPHEMERIS_TYPE":"0","APOAPSIS":"548.113","OBJECT_TYPE":"PAYLOAD","CENTER_NAME":"EARTH","NORAD_CAT_ID":"45085","INCLINATION":"53.0553","CLASSIFICATION_TYPE":"U","BSTAR":"-0.00004310700000","FILE":"3223022","MEAN_ANOMALY":"271.3449","REF_FRAME":"TEME","LAUNCH_DATE":"2020-01-29","MEAN_MOTION_DOT":"-0.00000923","TIME_SYSTEM":"UTC","REV_AT_EPOCH":"10094","TLE_LINE1":"1 45085U 20006AT  21328.37426972 -.00000923  00000-0 -43107-4 0  9991","DECAY_DATE":null,"RCS_SIZE":"LARGE","ECCENTRICITY":"0.00012450","MEAN_MOTION_DDOT":"0.0000000000000","MEAN_ELEMENT_THEORY":"SGP4","RA_OF_ASC_NODE":"78.0725","SEMIMAJOR_AXIS":"6925.385","PERIOD":"95.593","TLE_LINE2":"2 45085  53.0553  78.0725 0001245  88.7683 271.3449 15.06387965100940","OBJECT_ID":"2020-006AT","SITE":"AFETR","MEAN_MOTION":"15.06387965","ARG_OF_PERICENTER":"88.7683","COUNTRY_CODE":"US","EPOCH":"2021-11-24T08:58:56.903808","OBJECT_NAME":"STARLINK-1179","PERIAPSIS":"546.388","ELEMENT_SET_NO":"999"},{"CENTER_NAME":"EARTH","NORAD_CAT_ID":"45086","CLASSIFICATION_TYPE":"U","INCLINATION":"53.0043","OBJECT_TYPE":"PAYLOAD","GP_ID":"190424151","APOAPSIS":"545.894","EPHEMERIS_TYPE":"0","FILE":"3223205","MEAN_ANOMALY":"251.9775","REF_FRAME":"TEME","BSTAR":"0.00010060000000","MEAN_MOTION_DOT":"0.00001251","LAUNCH_DATE":"2020-01-29","RCS_SIZE":"LARGE","ECCENTRICITY":"0.00020270","REV_AT_EPOCH":"10093","TIME_SYSTEM":"UTC","DECAY_DATE":null,"TLE_LINE1":"1 45086U 20006AU  21328.79396278  .00001251  00000-0  10060-3 0  9997","ARG_OF_PERICENTER":"108.1434","SITE":"AFETR","MEAN_MOTION":"15.07288907","ELEMENT_SET_NO":"999","COUNTRY_CODE":"US","EPOCH":"2021-11-24T19:03:18.384192","PERIAPSIS":"543.087","OBJECT_NAME":"STARLINK-1181","MEAN_ELEMENT_THEORY":"SGP4","MEAN_MOTION_DDOT":"0.0000000000000","OBJECT_ID":"2020-006AU","SEMIMAJOR_AXIS":"6922.626","RA_OF_ASC_NODE":"73.8562","PERIOD":"95.536","TLE_LINE2":"2 45086  53.0043  73.8562 0002027 108.1434 251.9775 15.07288907100939"}];
